{"type": "FeatureCollection", "crs": {"type": "name", "properties": {"name": "urn:ogc:def:crs:OGC:1.3:CRS84"}}, "features": [{"type": "Feature", "properties": {}, "geometry": {"type": "MultiPolygon", "coordinates": [[[[77.5187, 35.4857], [77.6297, 35.4621], [77.6512, 35.4874], [77.6877, 35.4531], [77.8146, 35.5223], [77.911, 35.4621], [77.9378, 35.5593], [78.0224, 35.5642], [78.0404, 35.5868], [78.0905, 35.5334], [78.1031, 35.5561], [78.1572, 35.5509], [78.1974, 35.6398], [78.1817, 35.6674], [78.2083, 35.6677], [78.2436, 35.7253], [78.4088, 35.7307], [78.4405, 35.7807], [78.5356, 35.7635], [78.6076, 35.8152], [78.6566, 35.8221], [78.6735, 35.8521], [78.8002, 35.8698], [78.8559, 35.9742], [79.0284, 35.9142], [79.0777, 35.947], [79.2696, 35.9274], [79.3384, 35.9635], [79.3434, 35.9879], [79.4417, 35.9683], [79.4684, 35.9003], [79.4565, 35.872], [79.4889, 35.8492], [79.5721, 35.8965], [79.5884, 35.877], [79.5719, 35.8127], [79.6386, 35.7777], [79.6341, 35.7416], [79.7043, 35.639], [79.8168, 35.627], [79.8457, 35.5746], [79.9542, 35.6339], [79.9989, 35.6024], [79.9663, 35.5536], [80.0549, 35.4234], [80.088, 35.4325], [80.11, 35.4784], [80.1826, 35.5088], [80.1662, 35.5528], [80.2054, 35.5752], [80.2249, 35.5547], [80.2975, 35.5561], [80.3158, 35.5238], [80.3584, 35.5291], [80.4116, 35.4771], [80.4119, 35.426], [80.2859, 35.3543], [80.2662, 35.2964], [80.2943, 35.2679], [80.2826, 35.2039], [80.2553, 35.2056], [80.1948, 35.118], [80.2161, 34.9927], [80.2336, 34.9896], [80.1863, 34.9465], [80.2051, 34.8912], [80.1368, 34.8689], [80.099, 34.7745], [80.0669, 34.7623], [80.0741, 34.7058], [79.9722, 34.6997], [79.9515, 34.6737], [79.8985, 34.6962], [79.7865, 34.6274], [79.8115, 34.5341], [79.7943, 34.4801], [79.7019, 34.486], [79.6736, 34.4546], [79.6234, 34.4498], [79.5382, 34.4789], [79.5089, 34.4537], [79.5747, 34.319], [79.6028, 34.3066], [79.6074, 34.2382], [79.4906, 34.1909], [79.4856, 34.1256], [79.4161, 34.1001], [79.4304, 34.0613], [79.4033, 34.0023], [79.1896, 34.0252], [79.0994, 33.99], [78.9952, 34.0368], [78.9117, 34.0097], [78.8872, 33.9726], [78.9371, 33.9126], [78.9652, 33.8213], [79.0283, 33.7537], [79.0119, 33.6852], [79.0904, 33.6372], [79.0035, 33.6074], [78.9074, 33.6205], [78.8857, 33.5762], [78.9135, 33.5546], [78.9401, 33.38], [78.963, 33.3391], [79.0267, 33.3203], [79.0352, 33.2727], [79.1074, 33.1998], [79.152, 33.1819], [79.217, 33.2379], [79.3025, 33.1907], [79.4083, 33.1888], [79.3284, 33.0345], [79.3315, 33.0008], [79.3641, 32.9382], [79.3997, 32.9417], [79.3905, 32.917], [79.4712, 32.8788], [79.4609, 32.8334], [79.4808, 32.8007], [79.5573, 32.7592], [79.5484, 32.6766], [79.4525, 32.6038], [79.4133, 32.52], [79.351, 32.5285], [79.3312, 32.5654], [79.2935, 32.5396], [79.276, 32.556], [79.2482, 32.5167], [79.1883, 32.5159], [79.1315, 32.481], [79.1002, 32.3706], [79.0136, 32.3812], [78.9683, 32.3357], [78.8923, 32.4005], [78.8386, 32.4127], [78.7794, 32.479], [78.7575, 32.5672], [78.7814, 32.6163], [78.7421, 32.6553], [78.7396, 32.6957], [78.6341, 32.6454], [78.6335, 32.6054], [78.5163, 32.6145], [78.5009, 32.5836], [78.4161, 32.5675], [78.395, 32.5299], [78.4722, 32.4419], [78.4543, 32.3865], [78.5104, 32.3031], [78.4884, 32.2756], [78.5599, 32.2022], [78.5957, 32.198], [78.5916, 32.1672], [78.6312, 32.1258], [78.6825, 32.1146], [78.7344, 32.005], [78.7796, 31.9936], [78.7397, 31.8418], [78.7023, 31.8066], [78.7511, 31.6802], [78.7988, 31.6816], [78.8019, 31.6476], [78.8466, 31.6092], [78.7205, 31.5089], [78.7258, 31.4838], [78.7967, 31.4441], [78.7495, 31.3678], [78.7782, 31.3123], [78.8534, 31.2944], [78.8616, 31.3153], [78.8995, 31.2897], [78.9439, 31.3657], [79.0187, 31.349], [79.0189, 31.4267], [79.0991, 31.4547], [79.1709, 31.3991], [79.1706, 31.3631], [79.2365, 31.335], [79.2202, 31.3165], [79.2492, 31.2847], [79.2263, 31.2606], [79.3009, 31.219], [79.3124, 31.1483], [79.4128, 31.108], [79.4275, 31.0229], [79.5069, 31.0324], [79.5532, 30.9569], [79.6031, 30.9399], [79.6656, 30.9829], [79.7349, 30.9795], [79.7523, 31.0058], [79.866, 30.9718], [79.931, 30.8805], [80.0082, 30.8662], [80.1124, 30.7797], [80.1728, 30.809], [80.2125, 30.7527], [80.2386, 30.7623], [80.2488, 30.7204], [80.1926, 30.666], [80.2194, 30.6428], [80.2183, 30.5801], [80.3154, 30.5645], [80.3455, 30.5203], [80.4183, 30.5236], [80.5407, 30.4491], [80.6066, 30.4715], [80.7341, 30.4006], [80.8016, 30.323], [81.0309, 30.2471], [81.0447, 30.2059], [80.9971, 30.186], [80.9329, 30.1771], [80.91, 30.2233], [80.8626, 30.1695], [80.8777, 30.1287], [80.7611, 30.0496], [80.7469, 30.006], [80.674, 29.9573], [80.6029, 29.9585], [80.5527, 29.8505], [80.4936, 29.796], [80.4347, 29.8061], [80.3657, 29.7479], [80.3845, 29.6745], [80.4202, 29.6393], [80.4079, 29.5955], [80.3426, 29.553], [80.3496, 29.519], [80.2866, 29.477], [80.3024, 29.4532], [80.2429, 29.4439], [80.2416, 29.4117], [80.3169, 29.3149], [80.2972, 29.2052], [80.2483, 29.2212], [80.2716, 29.1422], [80.2332, 29.1186], [80.1834, 29.1372], [80.1448, 29.1043], [80.1354, 29.0074], [80.0585, 28.9166], [80.0752, 28.8245], [80.1181, 28.829], [80.2161, 28.7555], [80.2544, 28.7555], [80.2565, 28.7292], [80.3161, 28.7006], [80.3607, 28.6346], [80.4515, 28.6287], [80.4685, 28.5831], [80.517, 28.5518], [80.5307, 28.5724], [80.5035, 28.6649], [80.5685, 28.688], [80.5904, 28.68], [80.5898, 28.6482], [80.6676, 28.6421], [80.6904, 28.5877], [80.7679, 28.5661], [80.7886, 28.5248], [80.866, 28.4896], [80.8616, 28.5044], [80.8961, 28.507], [80.9156, 28.458], [80.9802, 28.4551], [80.965, 28.4377], [81.0177, 28.4518], [81.0335, 28.3975], [81.0357, 28.4138], [81.2106, 28.3608], [81.2325, 28.2891], [81.3209, 28.1975], [81.3219, 28.1695], [81.3015, 28.1663], [81.328, 28.1481], [81.3179, 28.1337], [81.3713, 28.1426], [81.3746, 28.177], [81.4466, 28.1611], [81.484, 28.1186], [81.4782, 28.0828], [81.6248, 28.0013], [81.6985, 27.9882], [81.8849, 27.857], [81.9258, 27.8596], [81.9681, 27.9292], [82.07, 27.9237], [82.1211, 27.8659], [82.209, 27.8429], [82.4487, 27.6793], [82.7079, 27.7228], [82.7124, 27.663], [82.758, 27.5858], [82.7356, 27.5023], [82.9293, 27.5012], [82.9541, 27.4678], [83.0346, 27.4488], [83.1879, 27.4544], [83.3173, 27.33], [83.3591, 27.3429], [83.4095, 27.4126], [83.3843, 27.436], [83.4017, 27.4572], [83.3881, 27.4798], [83.6143, 27.4695], [83.8637, 27.3459], [83.8844, 27.3773], [83.8332, 27.4257], [83.8474, 27.4454], [84.0239, 27.4326], [84.0953, 27.4898], [84.0977, 27.5172], [84.1507, 27.5169], [84.1486, 27.4861], [84.2057, 27.4702], [84.2082, 27.4425], [84.2541, 27.4541], [84.2917, 27.3851], [84.62, 27.3388], [84.689, 27.2206], [84.6748, 27.0969], [84.6433, 27.0462], [84.7931, 26.9959], [84.8253, 27.021], [84.8917, 26.9698], [84.9625, 26.9605], [84.9691, 26.916], [85.0527, 26.8892], [85.024, 26.8544], [85.1907, 26.87], [85.1765, 26.8098], [85.2115, 26.7583], [85.334, 26.7416], [85.4075, 26.7914], [85.4954, 26.7972], [85.5754, 26.861], [85.5855, 26.8473], [85.627, 26.8735], [85.7289, 26.8081], [85.734, 26.6508], [85.8175, 26.6028], [85.8511, 26.6087], [85.8516, 26.568], [85.9471, 26.613], [85.9585, 26.6513], [86.0269, 26.6668], [86.2175, 26.5886], [86.2526, 26.6172], [86.3331, 26.6191], [86.5416, 26.5387], [86.57, 26.4965], [86.7306, 26.4226], [86.7656, 26.4593], [86.8336, 26.439], [86.8937, 26.462], [86.8914, 26.4861], [86.9296, 26.4898], [86.9327, 26.5174], [87.0152, 26.5322], [87.0445, 26.5873], [87.0716, 26.5858], [87.0915, 26.4504], [87.1624, 26.404], [87.2604, 26.4096], [87.2658, 26.3739], [87.3406, 26.3474], [87.3687, 26.408], [87.4658, 26.4404], [87.6046, 26.3809], [87.6517, 26.3936], [87.6775, 26.4356], [87.7671, 26.4107], [87.7928, 26.4689], [87.8486, 26.4365], [87.8881, 26.4869], [87.9269, 26.4176], [87.9917, 26.3927], [88.0084, 26.3613], [88.0906, 26.426], [88.0966, 26.5355], [88.1603, 26.6366], [88.1863, 26.7385], [88.1736, 26.8654], [88.1203, 26.9504], [88.1353, 26.9851], [88.0775, 27.0353], [88.0372, 27.0368], [87.9873, 27.1194], [88.0192, 27.1712], [88.0316, 27.2863], [88.0665, 27.336], [88.0417, 27.372], [88.0748, 27.4321], [88.0437, 27.4959], [88.197, 27.791], [88.173, 27.8206], [88.1962, 27.854], [88.1394, 27.8783], [88.118, 27.9181], [88.1425, 27.9653], [88.207, 27.9407], [88.2376, 27.9695], [88.2513, 27.9417], [88.3404, 27.9858], [88.4136, 27.9811], [88.4949, 28.0551], [88.546, 28.034], [88.5544, 28.0823], [88.6373, 28.1182], [88.6706, 28.0741], [88.7547, 28.0803], [88.8361, 28.0153], [88.8362, 27.9278], [88.8676, 27.9197], [88.8881, 27.8564], [88.8571, 27.8155], [88.8482, 27.6682], [88.8148, 27.6469], [88.7918, 27.5742], [88.7633, 27.5664], [88.7936, 27.5269], [88.7768, 27.4693], [88.8057, 27.407], [88.9214, 27.3273], [88.9147, 27.2907], [88.8793, 27.2608], [88.8024, 27.2488], [88.7891, 27.1853], [88.7456, 27.142], [88.8716, 27.1088], [88.8753, 26.9432], [88.9213, 26.9942], [88.9522, 26.9685], [88.9451, 26.9335], [88.9791, 26.9179], [89.0214, 26.9407], [89.0485, 26.8993], [89.0957, 26.8917], [89.1336, 26.8075], [89.2625, 26.8142], [89.3789, 26.8623], [89.4696, 26.8027], [89.5574, 26.8134], [89.6498, 26.777], [89.6261, 26.7235], [89.755, 26.7338], [89.7747, 26.7021], [89.8609, 26.702], [89.8617, 26.7376], [90.0457, 26.7297], [90.1939, 26.7735], [90.1875, 26.8071], [90.2304, 26.859], [90.3003, 26.8484], [90.3555, 26.9008], [90.4173, 26.9048], [90.5464, 26.8168], [90.7172, 26.7699], [91.0528, 26.7829], [91.0968, 26.822], [91.3364, 26.7804], [91.4076, 26.8402], [91.4951, 26.7916], [91.6253, 26.8211], [91.6897, 26.8067], [91.8244, 26.8645], [91.8592, 26.9134], [91.8924, 26.9206], [91.9828, 26.8596], [92.0564, 26.8473], [92.1026, 26.8675], [92.1213, 26.9607], [92.0817, 27.0406], [92.0312, 27.08], [92.0269, 27.1686], [92.0718, 27.2348], [92.0377, 27.2585], [92.1233, 27.2866], [92.0649, 27.3273], [92.0167, 27.4806], [91.9608, 27.4601], [91.8487, 27.4865], [91.7674, 27.4649], [91.7089, 27.4765], [91.7176, 27.4981], [91.6945, 27.5056], [91.652, 27.4833], [91.5657, 27.5836], [91.5845, 27.6084], [91.5623, 27.6314], [91.6293, 27.7], [91.643, 27.7611], [91.8477, 27.7611], [91.8735, 27.722], [91.9244, 27.7165], [91.9827, 27.7773], [92.0569, 27.78], [92.2437, 27.8882], [92.2934, 27.8725], [92.3191, 27.7974], [92.4239, 27.8349], [92.4268, 27.8035], [92.4558, 27.7933], [92.5003, 27.8512], [92.5803, 27.8816], [92.6069, 27.9168], [92.6463, 27.9126], [92.7296, 27.9782], [92.7315, 28.0545], [92.6564, 28.08], [92.6773, 28.151], [92.9216, 28.2007], [92.9469, 28.2616], [93.1492, 28.3669], [93.1924, 28.494], [93.3706, 28.5997], [93.4256, 28.662], [93.6228, 28.6855], [93.6373, 28.6545], [93.6885, 28.6783], [93.7122, 28.6647], [93.7898, 28.737], [93.8966, 28.7575], [93.9146, 28.741], [93.9122, 28.7732], [93.9749, 28.8215], [93.988, 28.795], [94.0197, 28.7935], [94.0283, 28.8528], [94.1619, 28.9045], [94.1786, 28.9359], [94.2605, 28.9317], [94.274, 28.9679], [94.3664, 29.0259], [94.2769, 29.0939], [94.2932, 29.1523], [94.3789, 29.1541], [94.3905, 29.1842], [94.4481, 29.1834], [94.4569, 29.2131], [94.541, 29.2197], [94.6265, 29.2958], [94.6972, 29.3154], [94.7349, 29.2869], [94.7517, 29.2297], [94.8037, 29.2084], [94.8073, 29.1649], [94.8842, 29.1791], [95.0184, 29.1262], [94.9947, 29.1736], [95.0972, 29.142], [95.1194, 29.1124], [95.1038, 29.0961], [95.2115, 29.1076], [95.2626, 29.0683], [95.2993, 29.1365], [95.4127, 29.1259], [95.4339, 29.1927], [95.4579, 29.1368], [95.5036, 29.126], [95.5021, 29.1922], [95.5957, 29.188], [95.6056, 29.236], [95.648, 29.2104], [95.6983, 29.2247], [95.7088, 29.204], [95.7432, 29.2257], [95.7371, 29.298], [95.8123, 29.3475], [95.8389, 29.3531], [95.8411, 29.3212], [95.8775, 29.3146], [95.9657, 29.3758], [96.0165, 29.3625], [96.0537, 29.3827], [96.1363, 29.3456], [96.1523, 29.2964], [96.2644, 29.246], [96.2603, 29.2173], [96.3028, 29.1923], [96.2878, 29.1321], [96.1996, 29.0988], [96.215, 29.0693], [96.1868, 29.0373], [96.2069, 29.0326], [96.2444, 29.0874], [96.3302, 29.1131], [96.366, 29.0815], [96.364, 29.0423], [96.4441, 28.9951], [96.4485, 28.9403], [96.5217, 28.9389], [96.5228, 28.8621], [96.5889, 28.8195], [96.5733, 28.7835], [96.6028, 28.7809], [96.6318, 28.7337], [96.6411, 28.6799], [96.5447, 28.6874], [96.514, 28.5823], [96.4754, 28.5733], [96.4656, 28.5229], [96.4092, 28.5245], [96.4065, 28.5059], [96.4745, 28.4956], [96.4981, 28.429], [96.4931, 28.5418], [96.614, 28.6204], [96.6869, 28.5898], [96.7119, 28.6114], [96.762, 28.5531], [96.76, 28.5194], [96.8606, 28.483], [96.8878, 28.3873], [96.9251, 28.3526], [97.0006, 28.3251], [97.0778, 28.3708], [97.1264, 28.3619], [97.2372, 28.2942], [97.2844, 28.2314], [97.3601, 28.2048], [97.3123, 28.0621], [97.3545, 28.0668], [97.3954, 28.0117], [97.3631, 27.9653], [97.3662, 27.8772], [97.2981, 27.9161], [97.2475, 27.9001], [97.1133, 27.7853], [97.0877, 27.7342], [97.0315, 27.7495], [96.983, 27.6665], [96.9351, 27.6617], [96.8898, 27.6059], [96.9353, 27.5083], [96.9034, 27.4528], [97.1636, 27.1422], [97.1382, 27.0915], [97.1004, 27.109], [97.0634, 27.0918], [96.9842, 27.1544], [96.8677, 27.1847], [96.8547, 27.2108], [96.8856, 27.2269], [96.8843, 27.2602], [96.8469, 27.2716], [96.7967, 27.3458], [96.7042, 27.3723], [96.6057, 27.3658], [96.5962, 27.3336], [96.5236, 27.2863], [96.4406, 27.3063], [96.2286, 27.2788], [96.0226, 27.18], [95.9457, 27.0514], [95.8702, 27.0131], [95.8023, 27.0151], [95.7231, 26.8815], [95.6672, 26.9029], [95.608, 26.8132], [95.5246, 26.8227], [95.4306, 26.7], [95.3034, 26.6508], [95.2339, 26.6825], [95.1491, 26.616], [95.1543, 26.5828], [95.1072, 26.5415], [95.1141, 26.5184], [95.0617, 26.4495], [95.1322, 26.3777], [95.1145, 26.2327], [95.1425, 26.2116], [95.1177, 26.1012], [95.1857, 26.0733], [95.1258, 25.9862], [95.0116, 25.898], [95.0487, 25.7598], [94.9355, 25.6668], [94.9148, 25.6075], [94.8819, 25.5908], [94.8982, 25.5656], [94.8456, 25.5613], [94.7838, 25.4806], [94.7517, 25.4938], [94.6834, 25.4662], [94.6704, 25.4187], [94.6347, 25.3952], [94.5756, 25.2139], [94.7409, 25.1266], [94.7441, 25.037], [94.6963, 24.9683], [94.7136, 24.935], [94.6322, 24.8396], [94.605, 24.7126], [94.5797, 24.7249], [94.5419, 24.7044], [94.5399, 24.6443], [94.5086, 24.5939], [94.4565, 24.5731], [94.4258, 24.4813], [94.3982, 24.4823], [94.4085, 24.4399], [94.3609, 24.3944], [94.3785, 24.3797], [94.3499, 24.3344], [94.322, 24.3289], [94.3219, 24.2772], [94.2599, 24.1655], [94.2545, 24.0825], [94.1899, 23.9335], [94.1696, 23.9287], [94.1566, 23.8479], [94.1261, 23.8335], [94.0961, 23.8892], [94.049, 23.8872], [94.0167, 23.9269], [93.9301, 23.95], [93.8078, 23.9268], [93.7543, 24.0055], [93.6238, 24.0114], [93.5919, 23.9607], [93.5595, 23.982], [93.5051, 23.9425], [93.4634, 23.9736], [93.414, 24.0741], [93.3487, 24.105], [93.3285, 24.081], [93.3287, 23.985], [93.3514, 23.9415], [93.3952, 23.9239], [93.3918, 23.7562], [93.4377, 23.6868], [93.3877, 23.4455], [93.4014, 23.3842], [93.3554, 23.3526], [93.388, 23.2165], [93.3675, 23.1442], [93.3853, 23.1347], [93.2936, 23.0067], [93.2288, 23.0116], [93.1846, 23.0595], [93.1265, 23.044], [93.1197, 23.0024], [93.1642, 22.9115], [93.131, 22.907], [93.0942, 22.8062], [93.0954, 22.6723], [93.1402, 22.5927], [93.1064, 22.5269], [93.1284, 22.5236], [93.1389, 22.4542], [93.1852, 22.4277], [93.202, 22.2641], [93.1417, 22.2457], [93.1507, 22.1763], [93.1236, 22.174], [93.1109, 22.2043], [93.0378, 22.1954], [93.0592, 22.1012], [93.0045, 22.1047], [93.0051, 21.9872], [92.9814, 21.9807], [92.9512, 22.03], [92.9266, 22.0154], [92.9062, 21.9414], [92.8625, 22.0629], [92.6995, 22.155], [92.6796, 22.0115], [92.6518, 22.0163], [92.6346, 21.9835], [92.6025, 21.9781], [92.6025, 22.062], [92.5622, 22.1278], [92.5799, 22.143], [92.6062, 22.1238], [92.6094, 22.1643], [92.5521, 22.409], [92.5514, 22.5134], [92.5218, 22.5602], [92.5394, 22.5893], [92.5168, 22.7223], [92.4741, 22.7467], [92.4498, 22.8939], [92.3714, 22.9362], [92.3924, 23.0564], [92.3582, 23.1032], [92.3465, 23.2365], [92.4042, 23.2408], [92.3643, 23.323], [92.379, 23.3619], [92.3169, 23.4716], [92.3082, 23.578], [92.273, 23.6422], [92.28, 23.7194], [92.2412, 23.7204], [92.2147, 23.6521], [92.203, 23.7058], [92.1483, 23.7356], [92.0834, 23.68], [92.0793, 23.6487], [92.0471, 23.6458], [91.957, 23.7341], [91.958, 23.6946], [91.934, 23.6847], [91.9703, 23.4783], [91.9372, 23.4666], [91.9433, 23.4354], [91.8996, 23.4408], [91.8451, 23.4063], [91.8249, 23.3539], [91.762, 23.3001], [91.8132, 23.0986], [91.8357, 23.0924], [91.8063, 23.0634], [91.7743, 23.0695], [91.7801, 23.029], [91.7682, 23.0409], [91.7207, 22.9876], [91.6453, 22.9848], [91.6186, 22.9373], [91.6059, 22.9718], [91.5766, 22.9652], [91.5425, 22.9997], [91.5503, 23.0385], [91.5302, 23.0384], [91.5153, 23.1449], [91.4909, 23.1578], [91.5075, 23.1838], [91.4505, 23.2193], [91.4703, 23.2278], [91.4542, 23.2604], [91.4183, 23.2556], [91.4088, 23.2851], [91.3807, 23.2086], [91.4172, 23.0647], [91.3958, 23.0562], [91.347, 23.1024], [91.3234, 23.1582], [91.3265, 23.2525], [91.3002, 23.2926], [91.3131, 23.3065], [91.2899, 23.3186], [91.3201, 23.3602], [91.2911, 23.3507], [91.2493, 23.4903], [91.2007, 23.5202], [91.2129, 23.5505], [91.1944, 23.5474], [91.1596, 23.6106], [91.1563, 23.6709], [91.1996, 23.6465], [91.2084, 23.6865], [91.1534, 23.6888], [91.1571, 23.7422], [91.219, 23.7366], [91.2541, 23.8372], [91.2328, 23.9272], [91.2762, 23.9227], [91.2642, 23.9444], [91.3039, 23.9983], [91.3793, 23.9754], [91.3965, 24.0498], [91.3745, 24.1075], [91.5861, 24.0727], [91.5957, 24.0973], [91.6382, 24.1042], [91.6659, 24.2335], [91.6881, 24.1622], [91.7626, 24.1418], [91.7448, 24.2474], [91.8165, 24.2101], [91.8505, 24.2238], [91.8453, 24.1914], [91.9016, 24.1366], [91.9405, 24.2684], [91.9199, 24.3371], [91.9573, 24.3566], [91.9957, 24.3222], [91.9697, 24.3847], [92.0973, 24.3725], [92.1366, 24.4251], [92.164, 24.4186], [92.1545, 24.5232], [92.2237, 24.5174], [92.2544, 24.6781], [92.2964, 24.7367], [92.2318, 24.9003], [92.2994, 24.916], [92.3998, 24.8487], [92.498, 24.8765], [92.4887, 24.9485], [92.4494, 24.9399], [92.4691, 24.964], [92.419, 24.9665], [92.4254, 25.0303], [92.3396, 25.0502], [92.3348, 25.0787], [92.2274, 25.0932], [92.2072, 25.1114], [92.2273, 25.1175], [92.1646, 25.1263], [92.0617, 25.1878], [91.9762, 25.1683], [91.7521, 25.1761], [91.7469, 25.1405], [91.7031, 25.1593], [91.6378, 25.1227], [91.6019, 25.1429], [91.6125, 25.1763], [91.4704, 25.1339], [91.4685, 25.152], [91.2862, 25.1856], [91.2679, 25.2073], [90.8621, 25.1577], [90.7804, 25.1862], [90.7332, 25.1551], [90.6661, 25.1659], [90.6633, 25.1975], [90.6411, 25.1749], [90.5088, 25.1767], [90.4409, 25.1446], [90.3301, 25.1938], [90.1188, 25.2233], [89.9665, 25.3038], [89.8383, 25.2932], [89.8198, 25.3818], [89.8824, 25.6173], [89.8274, 25.7323], [89.841, 25.7612], [89.8165, 25.8155], [89.8869, 25.9453], [89.8253, 25.9455], [89.8711, 25.9811], [89.8354, 26.0107], [89.8359, 25.9824], [89.8195, 25.9881], [89.8088, 26.0433], [89.7904, 26.0178], [89.8017, 26.0403], [89.7735, 26.0377], [89.7946, 26.088], [89.7563, 26.1091], [89.7475, 26.1575], [89.6815, 26.1637], [89.7013, 26.1735], [89.6734, 26.2017], [89.6917, 26.2128], [89.6793, 26.2383], [89.6719, 26.2199], [89.6343, 26.2292], [89.6495, 26.1903], [89.6277, 26.1841], [89.6554, 26.1815], [89.6492, 26.1645], [89.6091, 26.1806], [89.6104, 26.1547], [89.5908, 26.1573], [89.6038, 26.1176], [89.6301, 26.1185], [89.5963, 26.0986], [89.6298, 26.1073], [89.6501, 26.0628], [89.6051, 26.0636], [89.5774, 25.9691], [89.5401, 25.9702], [89.5408, 26.006], [89.4308, 26.0111], [89.4235, 26.0476], [89.3932, 26.0065], [89.3564, 26.0077], [89.254, 26.064], [89.2665, 26.0939], [89.2297, 26.1239], [89.1553, 26.1383], [89.1409, 26.2359], [89.1, 26.2796], [89.1047, 26.3159], [89.1225, 26.2865], [89.1362, 26.3202], [89.0843, 26.3222], [89.1013, 26.3366], [89.0795, 26.363], [89.0874, 26.3977], [88.9937, 26.4129], [88.9565, 26.4597], [88.9264, 26.4071], [88.9047, 26.4086], [88.9189, 26.3595], [88.9583, 26.3618], [88.9524, 26.3316], [88.9872, 26.3484], [88.9959, 26.2901], [89.0211, 26.3092], [89.0398, 26.2766], [89.0602, 26.2931], [89.0507, 26.2417], [88.9589, 26.2402], [88.8983, 26.2888], [88.8617, 26.2735], [88.8778, 26.2336], [88.8415, 26.2309], [88.7934, 26.3101], [88.7472, 26.3111], [88.7446, 26.2893], [88.6662, 26.2628], [88.6679, 26.2973], [88.7088, 26.2881], [88.675, 26.3202], [88.7464, 26.3224], [88.7454, 26.3479], [88.7026, 26.3345], [88.6809, 26.3798], [88.7022, 26.3886], [88.6238, 26.4351], [88.6229, 26.471], [88.5599, 26.4576], [88.5568, 26.4853], [88.4894, 26.5102], [88.4846, 26.5413], [88.4359, 26.5451], [88.416, 26.6317], [88.3995, 26.6266], [88.3316, 26.4819], [88.3531, 26.4477], [88.3716, 26.488], [88.4851, 26.4604], [88.5242, 26.3594], [88.4802, 26.3507], [88.4576, 26.3766], [88.4342, 26.3352], [88.4033, 26.329], [88.4148, 26.3152], [88.3495, 26.2823], [88.3502, 26.2203], [88.177, 26.148], [88.1575, 26.0795], [88.1841, 26.0725], [88.1835, 26.0252], [88.1396, 26.0131], [88.1223, 25.9481], [88.0857, 25.9168], [88.1121, 25.8652], [88.1069, 25.8151], [88.1509, 25.7757], [88.1837, 25.802], [88.2099, 25.787], [88.2694, 25.8083], [88.2664, 25.7826], [88.3744, 25.7169], [88.4019, 25.6726], [88.4538, 25.665], [88.4441, 25.597], [88.5, 25.584], [88.4935, 25.5589], [88.5332, 25.5421], [88.5399, 25.5084], [88.609, 25.5164], [88.6469, 25.4779], [88.6993, 25.4713], [88.7075, 25.5], [88.7673, 25.4977], [88.7598, 25.5256], [88.8105, 25.5233], [88.8393, 25.4582], [88.8126, 25.4105], [88.8408, 25.3973], [88.8409, 25.3639], [88.9294, 25.3042], [89.0089, 25.3031], [89.0084, 25.2644], [88.9562, 25.2552], [88.9613, 25.2085], [88.9363, 25.2106], [88.9486, 25.1779], [88.923, 25.1651], [88.8438, 25.2139], [88.8058, 25.1706], [88.7693, 25.1899], [88.7491, 25.1767], [88.7113, 25.2077], [88.6127, 25.2042], [88.5656, 25.1752], [88.4993, 25.2102], [88.4636, 25.1949], [88.4417, 25.2105], [88.4621, 25.1497], [88.435, 25.056], [88.4527, 25.0371], [88.4119, 24.9987], [88.399, 24.9452], [88.3404, 24.9404], [88.3303, 24.8702], [88.2761, 24.8979], [88.2572, 24.878], [88.261, 24.9177], [88.2238, 24.9618], [88.1379, 24.9363], [88.175, 24.8602], [88.1322, 24.8361], [88.1364, 24.8053], [88.1235, 24.8232], [88.1061, 24.7797], [88.0683, 24.7692], [88.0621, 24.7209], [88.0086, 24.6678], [88.1416, 24.5107], [88.3339, 24.3815], [88.445, 24.3789], [88.5265, 24.3448], [88.5551, 24.2934], [88.57, 24.3271], [88.6988, 24.3137], [88.7354, 24.2791], [88.7461, 24.147], [88.6987, 24.1207], [88.7425, 24.0554], [88.7238, 24.0474], [88.7408, 24.0359], [88.729, 23.9942], [88.7579, 24.007], [88.7694, 23.9821], [88.7379, 23.9832], [88.7334, 23.9111], [88.7063, 23.9164], [88.6676, 23.8696], [88.5755, 23.8618], [88.602, 23.817], [88.5561, 23.7846], [88.581, 23.7606], [88.5583, 23.6492], [88.5938, 23.6409], [88.5804, 23.6028], [88.6461, 23.6092], [88.6538, 23.5564], [88.7414, 23.4797], [88.8008, 23.4973], [88.7954, 23.4431], [88.7639, 23.448], [88.7495, 23.4009], [88.7654, 23.3673], [88.7321, 23.3522], [88.7455, 23.3078], [88.6962, 23.3022], [88.7188, 23.2551], [88.7897, 23.2184], [88.8115, 23.2217], [88.8115, 23.2562], [88.8241, 23.2339], [88.9068, 23.2361], [88.9426, 23.2062], [88.9958, 23.215], [88.8687, 23.101], [88.88, 23.0069], [88.8449, 23.0092], [88.8711, 22.9789], [88.8595, 22.9427], [88.894, 22.9524], [88.9094, 22.8799], [88.9453, 22.8808], [88.9685, 22.845], [88.9588, 22.7973], [88.9115, 22.7573], [88.9623, 22.6945], [88.9261, 22.6521], [88.9345, 22.6181], [88.9603, 22.6161], [88.9376, 22.5601], [88.9962, 22.4694], [89.0001, 22.4296], [88.9723, 22.4113], [88.9904, 22.3921], [88.9848, 22.3262], [89.0244, 22.2958], [88.996, 22.2857], [89.0707, 22.1969], [89.0714, 22.1486], [89.098, 22.1551], [89.0399, 22.1025], [89.0337, 22.0458], [89.0764, 21.9975], [89.0636, 21.9365], [89.0075, 21.9402], [89.0191, 21.9761], [88.9945, 21.9508], [89.0167, 21.8994], [88.9857, 21.8956], [89.0321, 21.8632], [89.0295, 21.8207], [89.002, 21.809], [89.0208, 21.8102], [89.0254, 21.7557], [89.0604, 21.7282], [89.0996, 21.6373], [89.0574, 21.6119], [89.02, 21.6603], [89.0421, 21.6182], [89.0266, 21.5986], [88.9575, 21.6171], [88.9447, 21.6658], [88.92, 21.6304], [88.8863, 21.6583], [88.8854, 21.7433], [88.86, 21.7771], [88.8319, 21.7677], [88.8671, 21.7575], [88.8429, 21.71], [88.8646, 21.6358], [88.8463, 21.6383], [88.8491, 21.6162], [88.8096, 21.6341], [88.8187, 21.6839], [88.8008, 21.6546], [88.7225, 21.6779], [88.6979, 21.7425], [88.722, 21.8042], [88.6979, 21.8391], [88.7204, 21.8525], [88.7004, 21.8567], [88.7279, 21.9], [88.727, 21.975], [88.7583, 21.9679], [88.7786, 22.0141], [88.7549, 22.0753], [88.7265, 22.0528], [88.6853, 22.0674], [88.7353, 22.0299], [88.7199, 22.0028], [88.6636, 22.0208], [88.6391, 22.0762], [88.6191, 22.0178], [88.5986, 22.0307], [88.6188, 21.9324], [88.5787, 21.9758], [88.6137, 21.9208], [88.5858, 21.8887], [88.5708, 21.9071], [88.555, 21.8154], [88.5346, 21.84], [88.5521, 21.8758], [88.5266, 21.8521], [88.4996, 21.8758], [88.5279, 21.9191], [88.5183, 21.9479], [88.5, 21.9554], [88.5046, 21.9141], [88.4579, 21.8958], [88.4821, 21.885], [88.4912, 21.8409], [88.4488, 21.8116], [88.4779, 21.7875], [88.4509, 21.6121], [88.4296, 21.6067], [88.4242, 21.7188], [88.4129, 21.6516], [88.4337, 21.6199], [88.3966, 21.5912], [88.3796, 21.675], [88.4021, 21.72], [88.365, 21.7313], [88.3971, 21.7142], [88.3683, 21.6821], [88.3433, 21.7204], [88.3166, 21.7071], [88.3075, 21.7304], [88.295, 21.7054], [88.2749, 21.7337], [88.3095, 21.6749], [88.2862, 21.5991], [88.3096, 21.5792], [88.2908, 21.5562], [88.2466, 21.5612], [88.2154, 21.6125], [88.2329, 21.6666], [88.1988, 21.6808], [88.2196, 21.6983], [88.2196, 21.7617], [88.1562, 21.9558], [88.2245, 22.0749], [88.2087, 22.1491], [88.1808, 22.1912], [88.0196, 22.2229], [88.0216, 22.2004], [88.1333, 22.1837], [88.1903, 22.1041], [88.1483, 22.0595], [88.0483, 22.0145], [87.9737, 21.8542], [87.9191, 21.8013], [87.8933, 21.7929], [87.8756, 21.8174], [87.8871, 21.7774], [87.8042, 21.6962], [87.7508, 21.6962], [87.7092, 21.6604], [87.5575, 21.6362], [87.3875, 21.5712], [87.3475, 21.5829], [87.3767, 21.5504], [87.1875, 21.5546], [87.1696, 21.5383], [87.2012, 21.545], [87.1275, 21.5129], [87.0925, 21.5371], [87.1087, 21.5016], [87.0758, 21.4729], [87.0387, 21.4783], [87.0604, 21.47], [86.9121, 21.3383], [86.8321, 21.2124], [86.8271, 21.1366], [86.9746, 20.8208], [86.9675, 20.7821], [86.8875, 20.7971], [86.8676, 20.7752], [86.9958, 20.7696], [87.0034, 20.7121], [86.9258, 20.7104], [86.9741, 20.7096], [86.9642, 20.6946], [87.0696, 20.7208], [86.8608, 20.5929], [86.7691, 20.5029], [86.7316, 20.5346], [86.7621, 20.5025], [86.7458, 20.4688], [86.7158, 20.4788], [86.7379, 20.4767], [86.7354, 20.4158], [86.7258, 20.3962], [86.7079, 20.4091], [86.7466, 20.4004], [86.7391, 20.3829], [86.7592, 20.3987], [86.745, 20.3771], [86.7791, 20.3954], [86.7687, 20.37], [86.7879, 20.3766], [86.7683, 20.3288], [86.6738, 20.2941], [86.7241, 20.2938], [86.7988, 20.3467], [86.5209, 20.1846], [86.5546, 20.1917], [86.4396, 20.0575], [86.4225, 20.0021], [86.3824, 19.9654], [86.3783, 19.9912], [86.315, 19.9879], [86.3716, 19.9521], [85.54, 19.6962], [85.5342, 19.6787], [85.592, 19.7016], [85.3433, 19.5812], [85.0833, 19.3779], [85.0379, 19.3917], [85.05, 19.3679], [85.0799, 19.3721], [84.9175, 19.2596], [84.9091, 19.2787], [84.9154, 19.2583], [84.795, 19.1162], [84.7975, 19.1312], [84.7775, 19.1079], [84.7458, 19.1171], [84.7262, 19.0908], [84.7458, 19.0746], [84.7929, 19.1141], [84.7671, 19.0717], [84.5896, 18.8633], [84.5579, 18.79], [84.3621, 18.5675], [84.3346, 18.5767], [84.3492, 18.5604], [84.3075, 18.5321], [84.3596, 18.5541], [84.1383, 18.3512], [84.0996, 18.35], [84.132, 18.3433], [84.1292, 18.3096], [83.9517, 18.2137], [83.9246, 18.2292], [83.94, 18.2096], [83.6683, 18.0879], [83.5779, 18.0142], [83.5563, 18.0258], [83.5704, 18.0066], [83.5437, 17.9642], [83.4566, 17.9004], [83.4545, 17.9233], [83.4112, 17.8083], [83.3441, 17.722], [83.2829, 17.6891], [83.2979, 17.6758], [83.2149, 17.5904], [82.9416, 17.4487], [82.8825, 17.4246], [82.8916, 17.4471], [82.8549, 17.4254], [82.8691, 17.4154], [82.6017, 17.2838], [82.3062, 17.0383], [82.2746, 16.9441], [82.2504, 16.9358], [82.2508, 16.8754], [82.3158, 16.8412], [82.3558, 16.8512], [82.3596, 16.825], [82.3621, 16.9433], [82.3333, 16.9888], [82.3629, 16.9624], [82.3712, 16.9091], [82.3419, 16.7363], [82.2689, 16.7067], [82.3389, 16.7135], [82.3335, 16.6876], [82.3553, 16.7105], [82.34, 16.7167], [82.3661, 16.7187], [82.3462, 16.7287], [82.3686, 16.713], [82.3089, 16.5975], [82.2585, 16.6496], [82.2582, 16.6887], [82.2554, 16.648], [82.3004, 16.5849], [82.2587, 16.5608], [82.3046, 16.5599], [82.0333, 16.4404], [82.0396, 16.4633], [81.9633, 16.3971], [81.9635, 16.4361], [81.9508, 16.3929], [81.7191, 16.3087], [81.7171, 16.3646], [81.71, 16.3054], [81.6883, 16.3304], [81.5466, 16.3454], [81.5533, 16.3721], [81.5534, 16.3521], [81.3979, 16.3424], [81.2717, 16.277], [81.2675, 16.2929], [81.1979, 16.1741], [81.1521, 15.9717], [81.1262, 15.9933], [81.1387, 15.965], [80.9971, 15.8225], [81.0312, 15.7608], [80.9816, 15.7746], [81.0129, 15.7567], [80.9758, 15.7379], [80.9591, 15.7587], [80.9516, 15.7321], [80.9741, 15.7496], [80.9687, 15.7308], [80.9383, 15.7104], [80.8979, 15.755], [80.9233, 15.7146], [80.8316, 15.7013], [80.8354, 15.7508], [80.8125, 15.7421], [80.7846, 15.8084], [80.7867, 15.8537], [80.8108, 15.7796], [80.8054, 15.8425], [80.6775, 15.8896], [80.5224, 15.8571], [80.375, 15.7721], [80.2642, 15.6721], [80.2321, 15.5425], [80.1929, 15.5016], [80.2146, 15.5042], [80.2045, 15.4683], [80.0996, 15.3208], [80.0479, 15.0741], [80.0888, 14.8783], [80.0779, 14.8091], [80.095, 14.8121], [80.1296, 14.7283], [80.1125, 14.7454], [80.1137, 14.7241], [80.1341, 14.6921], [80.1404, 14.7158], [80.1854, 14.5967], [80.14, 14.5654], [80.1958, 14.5779], [80.1679, 14.3391], [80.1375, 14.2446], [80.1037, 14.2525], [80.1371, 14.2416], [80.1421, 14.0725], [80.1262, 14.0658], [80.1437, 14.0692], [80.2412, 13.8249], [80.225, 13.8187], [80.2571, 13.7816], [80.2362, 13.6441], [80.3221, 13.3892], [80.3279, 13.44], [80.3462, 13.2833], [80.3279, 13.2325], [80.3137, 13.2466], [80.3092, 13.2021], [80.3313, 13.2267], [80.2946, 13.1217], [80.3046, 13.0908], [80.2762, 13.0683], [80.2641, 13.0112], [80.2496, 12.8033], [80.2329, 12.845], [80.2296, 12.7866], [80.2475, 12.8004], [80.2562, 12.7808], [80.1554, 12.5117], [80.1562, 12.4624], [80.1341, 12.4312], [80.115, 12.4537], [80.1312, 12.4258], [79.9716, 12.2346], [80.0104, 12.2533], [79.8729, 12.04], [79.7588, 11.6716], [79.7796, 11.7008], [79.7562, 11.5783], [79.7654, 11.485], [79.7817, 11.4996], [79.8321, 11.3625], [79.7613, 11.3792], [79.8388, 11.3525], [79.8571, 11.1958], [79.8521, 10.8375], [79.827, 10.8175], [79.8504, 10.825], [79.8771, 10.2999], [79.7933, 10.2729], [79.8112, 10.2866], [79.7983, 10.3046], [79.6625, 10.3479], [79.6583, 10.3229], [79.6391, 10.3654], [79.6296, 10.3358], [79.5808, 10.3121], [79.5604, 10.3267], [79.6033, 10.3471], [79.5454, 10.35], [79.5433, 10.3237], [79.4616, 10.3496], [79.4921, 10.3283], [79.4683, 10.3221], [79.5241, 10.3146], [79.3933, 10.3204], [79.2941, 10.2604], [79.2312, 10.1467], [79.2296, 10.0975], [79.2679, 10.04], [79.1562, 9.9308], [79.1246, 9.8558], [78.9954, 9.7117], [78.9313, 9.5867], [78.9196, 9.4925], [78.9004, 9.4867], [78.9996, 9.3475], [78.9949, 9.3313], [78.9592, 9.3404], [79.1891, 9.2804], [78.8742, 9.2546], [78.7333, 9.2079], [78.72, 9.1854], [78.6666, 9.1888], [78.6462, 9.1725], [78.6596, 9.1524], [78.5834, 9.1271], [78.4863, 9.1241], [78.4917, 9.1412], [78.3724, 9.0771], [78.3683, 9.0921], [78.3075, 9.0254], [78.2725, 9.0012], [78.2658, 9.0179], [78.1862, 8.92], [78.1637, 8.7567], [78.1254, 8.7617], [78.16, 8.7496], [78.1966, 8.7879], [78.2004, 8.7642], [78.1096, 8.6392], [78.1284, 8.6379], [78.1363, 8.5975], [78.1149, 8.5804], [78.1396, 8.5883], [78.1312, 8.495], [78.0437, 8.3833], [78.07, 8.3737], [77.8067, 8.2404], [77.7467, 8.1754], [77.5841, 8.1371], [77.55, 8.0737], [77.3183, 8.1221], [76.9721, 8.3884], [76.9554, 8.44], [76.6404, 8.825], [76.5462, 8.9], [76.5441, 8.9321], [76.5691, 8.9129], [76.6029, 8.9342], [76.5729, 8.9266], [76.6, 8.9712], [76.6066, 8.9513], [76.6142, 8.9679], [76.6291, 8.9471], [76.6454, 8.9517], [76.6333, 8.9687], [76.6625, 8.9537], [76.6683, 8.9737], [76.6321, 8.9792], [76.6663, 8.9942], [76.62, 8.9754], [76.5875, 8.9937], [76.5667, 8.9471], [76.5496, 8.9583], [76.5725, 8.9821], [76.5366, 8.9612], [76.5387, 8.9341], [76.4604, 9.1358], [76.4866, 9.1146], [76.4958, 9.1679], [76.4713, 9.1433], [76.4283, 9.2496], [76.4579, 9.1417], [76.3846, 9.3075], [76.3958, 9.3237], [76.3892, 9.3379], [76.382, 9.3158], [76.3571, 9.365], [76.2362, 9.9599], [76.2566, 9.9645], [76.2717, 9.9304], [76.2579, 9.9708], [76.288, 9.9466], [76.2704, 10.0325], [76.2304, 10.0183], [76.2425, 9.9729], [76.2196, 9.9991], [76.1679, 10.18], [76.2083, 10.1954], [76.1545, 10.1883], [76.0338, 10.5275], [76.0633, 10.5246], [76.0654, 10.5433], [76.045, 10.5521], [76.0284, 10.5279], [75.9196, 10.7783], [75.9604, 10.8125], [75.9166, 10.7937], [75.91, 10.8271], [75.9121, 10.7849], [75.8262, 11.12], [75.8483, 11.1412], [75.8696, 11.1241], [75.8467, 11.1438], [75.8258, 11.1237], [75.8054, 11.1549], [75.8287, 11.1566], [75.8271, 11.1791], [75.8037, 11.1625], [75.7804, 11.2225], [75.8017, 11.2338], [75.7779, 11.2284], [75.7354, 11.3308], [75.7579, 11.36], [75.7337, 11.3466], [75.6887, 11.4399], [75.6204, 11.4758], [75.5429, 11.7108], [75.4971, 11.7333], [75.4867, 11.7804], [75.4563, 11.7724], [75.4629, 11.8041], [75.455, 11.7779], [75.3833, 11.8579], [75.3554, 11.8617], [75.3004, 11.9433], [75.3446, 11.9333], [75.3146, 11.97], [75.3142, 11.9504], [75.2808, 11.9954], [75.2925, 11.9521], [75.2321, 12.0217], [75.2012, 12.0041], [75.1204, 12.195], [75.1312, 12.2125], [75.1179, 12.2024], [74.9854, 12.4775], [75.0033, 12.4687], [75.0021, 12.4916], [75.0, 12.4746], [74.9796, 12.4875], [74.8254, 12.8383], [74.8433, 12.8229], [74.8688, 12.8392], [74.8321, 12.8475], [74.8139, 12.9075], [74.8221, 12.8492], [74.7812, 13.09], [74.6954, 13.3433], [74.7137, 13.335], [74.6913, 13.4442], [74.7075, 13.4096], [74.7196, 13.4525], [74.7066, 13.4371], [74.6888, 13.4625], [74.6663, 13.6309], [74.68, 13.6054], [74.6791, 13.6337], [74.7221, 13.6383], [74.6795, 13.65], [74.6779, 13.6817], [74.6696, 13.6367], [74.6504, 13.6641], [74.5896, 13.9191], [74.5129, 13.9866], [74.5029, 14.0233], [74.5292, 14.0221], [74.5075, 14.0421], [74.5021, 14.0266], [74.4271, 14.275], [74.455, 14.2454], [74.5171, 14.2416], [74.4817, 14.277], [74.4425, 14.2721], [74.4274, 14.3087], [74.422, 14.2858], [74.3937, 14.4133], [74.4096, 14.415], [74.3829, 14.4167], [74.3496, 14.5016], [74.3829, 14.5391], [74.3629, 14.5408], [74.3716, 14.5621], [74.3458, 14.5429], [74.3533, 14.5187], [74.3108, 14.5179], [74.2921, 14.5941], [74.3496, 14.6041], [74.3133, 14.6154], [74.29, 14.5962], [74.2679, 14.6242], [74.2962, 14.6383], [74.2546, 14.7049], [74.2837, 14.7125], [74.2334, 14.7446], [74.2037, 14.7342], [74.2059, 14.7137], [74.1691, 14.7604], [74.1541, 14.7421], [74.1387, 14.7758], [74.1175, 14.7712], [74.0921, 14.8008], [74.12, 14.7987], [74.1258, 14.8371], [74.1642, 14.8371], [74.1616, 14.8171], [74.1647, 14.8586], [74.1154, 14.8408], [74.0971, 14.8916], [74.0412, 14.9175], [74.0546, 14.955], [74.0338, 14.9808], [74.0513, 14.9842], [73.992, 15.0183], [73.9842, 15.0538], [73.9129, 15.0833], [73.9563, 15.1575], [73.8979, 15.3283], [73.8775, 15.3671], [73.8433, 15.3571], [73.7846, 15.4083], [73.8766, 15.3962], [73.8852, 15.4276], [73.7887, 15.4591], [73.8261, 15.5038], [73.77, 15.4896], [73.7338, 15.5883], [73.7896, 15.6524], [73.7337, 15.6149], [73.6912, 15.7133], [73.7162, 15.7292], [73.6808, 15.7188], [73.6529, 15.7408], [73.6762, 15.7517], [73.6663, 15.8083], [73.6558, 15.7913], [73.6387, 15.8133], [73.6113, 15.8625], [73.6292, 15.8712], [73.6117, 15.8654], [73.5975, 15.9212], [73.5112, 15.9383], [73.5091, 15.9896], [73.5021, 15.9666], [73.4821, 16.0383], [73.4571, 16.0533], [73.4762, 16.0958], [73.4388, 16.1942], [73.4563, 16.2125], [73.4304, 16.1992], [73.4129, 16.2725], [73.435, 16.2837], [73.4087, 16.2742], [73.3854, 16.3358], [73.4279, 16.3716], [73.3741, 16.3587], [73.3671, 16.3792], [73.4688, 16.4133], [73.37, 16.3946], [73.3579, 16.4408], [73.3879, 16.4484], [73.3533, 16.4429], [73.3171, 16.5108], [73.3367, 16.5604], [73.3624, 16.4779], [73.3608, 16.5071], [73.4437, 16.5], [73.3625, 16.5237], [73.3754, 16.5375], [73.3491, 16.5546], [73.4096, 16.5566], [73.3591, 16.5529], [73.3187, 16.5983], [73.3541, 16.5929], [73.3429, 16.6058], [73.3733, 16.6287], [73.4008, 16.5888], [73.3846, 16.6009], [73.4021, 16.6158], [73.3908, 16.6354], [73.3329, 16.6191], [73.3454, 16.6917], [73.3071, 16.7283], [73.3104, 16.7858], [73.3317, 16.8096], [73.3429, 16.7858], [73.3463, 16.8283], [73.297, 16.8133], [73.2887, 16.8791], [73.3171, 16.8833], [73.2779, 16.8908], [73.2829, 16.9525], [73.2967, 16.9804], [73.3304, 16.9449], [73.3304, 16.9675], [73.272, 16.9866], [73.2862, 17.0108], [73.2591, 17.0195], [73.2571, 17.0475], [73.2875, 16.9988], [73.2912, 17.0334], [73.3254, 17.04], [73.2816, 17.0379], [73.3154, 17.0842], [73.2854, 17.0791], [73.2916, 17.1138], [73.2687, 17.1091], [73.2721, 17.1499], [73.2337, 17.1958], [73.2513, 17.195], [73.2479, 17.22], [73.1912, 17.2966], [73.2233, 17.2996], [73.2616, 17.2579], [73.2604, 17.2841], [73.2996, 17.2916], [73.2395, 17.2908], [73.2129, 17.3808], [73.1721, 17.3992], [73.2137, 17.4333], [73.1887, 17.4408], [73.1912, 17.5108], [73.1396, 17.5575], [73.2166, 17.5888], [73.1708, 17.5796], [73.1379, 17.61], [73.1162, 17.68], [73.1371, 17.7133], [73.0887, 17.8341], [73.1296, 17.8342], [73.0908, 17.8396], [73.0854, 17.8942], [73.0537, 17.9016], [73.0546, 17.9241], [73.0921, 17.94], [73.055, 17.9271], [73.0312, 17.9492], [73.0424, 17.9779], [73.0909, 17.9904], [73.0196, 17.9908], [73.0037, 18.0199], [73.0404, 18.0516], [73.0183, 18.0271], [72.9921, 18.0525], [72.9729, 18.1299], [72.9896, 18.1917], [72.9329, 18.2175], [72.9363, 18.28], [72.9667, 18.2787], [72.9767, 18.2446], [73.0729, 18.2175], [73.0596, 18.1825], [73.1021, 18.1424], [73.0629, 18.1908], [73.0804, 18.235], [73.0446, 18.2958], [73.0825, 18.2996], [73.0862, 18.3192], [73.0458, 18.3046], [73.0554, 18.2692], [73.03, 18.2629], [72.9212, 18.3475], [72.9287, 18.3816], [72.8954, 18.4567], [72.9071, 18.5399], [72.965, 18.5354], [73.0062, 18.4667], [72.9683, 18.5396], [72.9246, 18.5416], [72.8571, 18.6942], [72.8679, 18.8008], [72.9133, 18.7921], [72.9392, 18.8254], [72.9971, 18.7783], [72.9804, 18.7525], [73.0163, 18.715], [72.9788, 18.8], [73.0129, 18.8025], [72.9846, 18.8108], [72.9892, 18.8654], [72.9275, 18.8496], [72.9088, 18.8974], [72.9292, 18.9112], [72.9475, 18.8912], [72.9654, 18.9167], [72.9504, 18.9458], [72.9867, 18.9429], [72.9571, 18.9692], [72.995, 18.9679], [73.0671, 19.0208], [73.0012, 19.0041], [72.9858, 19.1895], [72.9554, 19.0933], [72.9304, 19.0875], [72.9504, 19.09], [72.9579, 19.0374], [72.9142, 18.9971], [72.8658, 19.0062], [72.8462, 18.9275], [72.8062, 18.8933], [72.8229, 18.9367], [72.7904, 18.9475], [72.8387, 19.0433], [72.8179, 19.0433], [72.8346, 19.0908], [72.8046, 19.1433], [72.8313, 19.18], [72.7971, 19.1291], [72.7796, 19.1541], [72.8412, 19.2541], [72.7833, 19.1921], [72.7862, 19.305], [72.81, 19.2921], [72.8574, 19.3154], [72.9121, 19.2883], [72.8542, 19.3504], [72.8133, 19.3238], [72.7771, 19.3483], [72.7446, 19.4599], [72.7783, 19.4921], [72.8888, 19.5241], [72.8458, 19.5413], [72.8291, 19.5096], [72.7808, 19.5037], [72.7875, 19.5237], [72.7633, 19.5062], [72.7304, 19.5292], [72.7162, 19.5917], [72.7479, 19.5991], [72.7304, 19.6017], [72.6954, 19.7258], [72.7149, 19.7446], [72.6921, 19.7391], [72.6971, 19.8017], [72.6554, 19.8333], [72.6921, 19.8633], [72.6658, 19.9337], [72.7108, 19.9687], [72.7463, 19.9416], [72.7187, 19.9725], [72.7079, 20.0717], [72.7379, 20.115], [72.7479, 20.2017], [72.7829, 20.2108], [72.7471, 20.2066], [72.7538, 20.29], [72.7891, 20.3504], [72.8371, 20.3725], [72.822, 20.37], [72.8287, 20.405], [72.8525, 20.4088], [72.8296, 20.4141], [72.8304, 20.4425], [72.9004, 20.53], [72.8896, 20.6275], [72.9129, 20.6366], [72.8866, 20.6371], [72.845, 20.7437], [72.9304, 20.7591], [72.8567, 20.752], [72.8541, 20.8237], [72.8262, 20.7941], [72.7829, 20.9192], [72.8133, 20.9312], [72.8241, 20.9145], [72.8241, 20.9496], [72.8642, 20.9463], [72.8333, 20.9596], [72.8496, 20.9716], [72.7583, 20.9288], [72.7337, 20.9983], [72.7283, 21.0537], [72.8487, 21.0325], [72.7979, 21.05], [72.8279, 21.0917], [72.7783, 21.0654], [72.707, 21.0875], [72.7096, 21.1308], [72.7887, 21.18], [72.7525, 21.1787], [72.7333, 21.1437], [72.6775, 21.1579], [72.6646, 21.0883], [72.64, 21.0804], [72.622, 21.1375], [72.6513, 21.1466], [72.6333, 21.1312], [72.6204, 21.1692], [72.6379, 21.2066], [72.6625, 21.2262], [72.6949, 21.1929], [72.7417, 21.1979], [72.64, 21.2354], [72.6462, 21.2674], [72.6179, 21.2683], [72.6387, 21.2983], [72.5979, 21.2983], [72.6363, 21.3191], [72.6266, 21.3429], [72.6533, 21.3304], [72.6862, 21.355], [72.6608, 21.3471], [72.6462, 21.3867], [72.6991, 21.4629], [72.7325, 21.4671], [72.7391, 21.4346], [72.7624, 21.4479], [72.7275, 21.4779], [72.6458, 21.4462], [72.6796, 21.5008], [72.775, 21.5971], [72.8225, 21.6104], [72.8342, 21.6663], [72.9279, 21.6758], [72.8692, 21.6904], [72.7842, 21.6637], [72.7375, 21.6904], [72.5367, 21.6629], [72.5271, 21.7108], [72.6187, 21.9059], [72.6516, 21.9471], [72.7141, 21.9363], [72.7496, 21.9733], [72.7308, 21.9879], [72.7267, 21.9521], [72.6475, 21.9654], [72.5375, 21.8962], [72.5104, 21.9217], [72.5237, 21.9674], [72.5079, 21.9758], [72.5263, 21.9767], [72.5146, 22.0291], [72.5479, 22.1483], [72.5858, 22.2046], [72.6458, 22.2162], [72.7608, 22.1737], [72.7971, 22.1983], [72.7804, 22.2108], [72.8187, 22.2566], [72.8758, 22.2304], [72.9121, 22.265], [72.84, 22.282], [72.7483, 22.2313], [72.645, 22.2837], [72.5658, 22.3046], [72.535, 22.2896], [72.535, 22.3054], [72.4308, 22.2045], [72.43, 22.2388], [72.4087, 22.21], [72.38, 22.3371], [72.3496, 22.3108], [72.3558, 22.2854], [72.3262, 22.3083], [72.3312, 22.2483], [72.315, 22.2321], [72.2829, 22.2449], [72.3012, 22.2325], [72.2987, 22.1033], [72.235, 22.0121], [72.182, 22.0225], [72.2379, 22.0], [72.2471, 21.9242], [72.1633, 21.9596], [72.2267, 21.9437], [72.2495, 21.9108], [72.2496, 21.81], [72.2146, 21.825], [72.215, 21.8571], [72.2087, 21.8267], [72.1883, 21.8404], [72.1662, 21.81], [72.1942, 21.8213], [72.2154, 21.7958], [72.2379, 21.7092], [72.2812, 21.69], [72.3063, 21.6267], [72.2679, 21.5725], [72.2363, 21.4541], [72.1104, 21.3008], [72.0892, 21.3154], [72.1129, 21.2975], [72.0837, 21.2466], [72.1113, 21.1991], [72.0092, 21.1346], [71.8983, 21.1133], [71.7942, 21.0509], [71.7996, 21.0688], [71.7783, 21.0676], [71.8083, 21.0367], [71.7766, 21.0392], [71.7649, 21.0659], [71.7429, 21.0347], [71.775, 21.0392], [71.7658, 21.021], [71.7216, 21.021], [71.5667, 20.9487], [71.5354, 20.9467], [71.5825, 20.9879], [71.5142, 20.9554], [71.4796, 20.8883], [71.4425, 20.8679], [71.3645, 20.8724], [71.3841, 20.8537], [71.2084, 20.8062], [71.2042, 20.787], [71.1283, 20.7671], [71.1475, 20.7579], [71.0867, 20.7696], [71.0725, 20.7329], [70.9725, 20.7279], [70.9979, 20.7133], [70.9808, 20.7004], [70.8983, 20.6971], [70.8775, 20.7279], [70.8746, 20.7033], [70.8221, 20.6908], [70.6533, 20.7587], [70.6591, 20.7795], [70.6158, 20.7696], [70.45, 20.8487], [70.4121, 20.8758], [70.4221, 20.8933], [70.4092, 20.8779], [70.3625, 20.9021], [70.1558, 21.0546], [69.7771, 21.4549], [69.805, 21.4596], [69.775, 21.4579], [69.6116, 21.6271], [69.3912, 21.805], [69.3737, 21.8283], [69.3958, 21.8546], [69.355, 21.8354], [69.2596, 21.9142], [68.9762, 22.215], [68.9354, 22.3067], [68.9804, 22.4083], [69.0683, 22.4787], [69.0829, 22.4717], [69.0421, 22.4342], [69.0354, 22.39], [69.1921, 22.4183], [69.1996, 22.3891], [69.1675, 22.3721], [69.1571, 22.31], [69.2275, 22.2562], [69.32, 22.292], [69.3308, 22.3279], [69.48, 22.3321], [69.4966, 22.3671], [69.5241, 22.3687], [69.51, 22.4254], [69.5512, 22.3991], [69.5525, 22.3487], [69.5904, 22.365], [69.5741, 22.3221], [69.5941, 22.3521], [69.6129, 22.3283], [69.6216, 22.3654], [69.6679, 22.3233], [69.6462, 22.3566], [69.6642, 22.3946], [69.6987, 22.3984], [69.7284, 22.4746], [69.74, 22.4287], [69.7608, 22.4412], [69.8083, 22.3979], [69.8316, 22.4496], [69.8983, 22.4654], [69.9208, 22.4379], [69.9079, 22.4891], [69.9608, 22.5029], [69.9462, 22.5267], [69.9858, 22.5446], [70.1183, 22.5504], [70.1075, 22.5196], [70.1316, 22.5521], [70.1742, 22.542], [70.1917, 22.5804], [70.2158, 22.5704], [70.1979, 22.6008], [70.2588, 22.6566], [70.2554, 22.6825], [70.2841, 22.6762], [70.2596, 22.7183], [70.3179, 22.7592], [70.3512, 22.885], [70.4171, 22.9225], [70.4475, 22.9704], [70.3958, 22.9804], [70.3904, 22.9358], [70.3517, 22.9229], [70.2875, 22.9446], [70.2354, 22.9791], [70.2191, 23.0554], [70.2329, 22.9641], [70.2062, 22.9775], [70.2241, 22.9529], [70.1475, 22.9463], [70.1196, 22.9624], [70.1317, 22.9959], [70.107, 22.9641], [70.1396, 22.9333], [70.1, 22.9079], [70.0041, 22.9196], [69.8983, 22.8713], [69.885, 22.9129], [69.875, 22.8671], [69.7991, 22.8454], [69.7841, 22.8637], [69.7825, 22.8345], [69.7288, 22.8191], [69.7438, 22.7875], [69.7138, 22.7991], [69.7312, 22.7767], [69.705, 22.7604], [69.7167, 22.7437], [69.6829, 22.7633], [69.7108, 22.7379], [69.6641, 22.7721], [69.6608, 22.7479], [69.6033, 22.7779], [69.6133, 22.7571], [69.5766, 22.7596], [69.5521, 22.7825], [69.5691, 22.7962], [69.4516, 22.7754], [69.352, 22.8184], [69.3617, 22.8812], [69.35, 22.8179], [69.3033, 22.8304], [69.3241, 22.8437], [69.2758, 22.8221], [69.2304, 22.8325], [69.225, 22.8762], [69.2271, 22.8375], [69.1958, 22.8362], [69.1212, 22.8775], [69.1425, 22.8962], [69.1083, 22.8871], [69.0825, 22.9287], [69.0692, 22.9171], [69.0758, 22.9521], [69.0642, 22.9154], [69.0087, 22.9475], [69.0142, 22.9829], [69.0071, 22.9492], [68.9908, 22.9537], [68.9687, 22.9667], [68.9825, 22.992], [68.9625, 22.9679], [68.6316, 23.1687], [68.7211, 23.1341], [68.5795, 23.2274], [68.5983, 23.2404], [68.6303, 23.2199], [68.6036, 23.2408], [68.6578, 23.2516], [68.6624, 23.2729], [68.6345, 23.2666], [68.6278, 23.2933], [68.6795, 23.3016], [68.6357, 23.3062], [68.6083, 23.3671], [68.619, 23.3254], [68.5758, 23.347], [68.5691, 23.3729], [68.5995, 23.3658], [68.5378, 23.4075], [68.5224, 23.4571], [68.4979, 23.4541], [68.5091, 23.4937], [68.4487, 23.48], [68.4854, 23.5175], [68.4537, 23.5158], [68.4691, 23.5513], [68.4404, 23.5291], [68.4496, 23.5049], [68.4254, 23.5092], [68.4279, 23.5583], [68.4612, 23.5742], [68.4446, 23.5708], [68.4528, 23.5967], [68.5478, 23.7142], [68.6296, 23.7608], [68.6666, 23.8121], [68.6799, 23.7987], [68.6816, 23.8213], [68.7649, 23.8413], [68.8108, 23.8788], [68.7724, 23.8588], [68.7624, 23.8838], [68.7491, 23.8471], [68.6591, 23.8587], [68.6791, 23.8454], [68.5816, 23.8138], [68.5324, 23.7521], [68.5153, 23.78], [68.5141, 23.7454], [68.4641, 23.7738], [68.477, 23.7434], [68.4341, 23.7363], [68.4529, 23.7792], [68.4456, 23.818], [68.4268, 23.8194], [68.4337, 23.7767], [68.3991, 23.7513], [68.4179, 23.7584], [68.4204, 23.7167], [68.3996, 23.6367], [68.3696, 23.6242], [68.392, 23.6058], [68.3641, 23.6121], [68.3746, 23.5975], [68.35, 23.5821], [68.2658, 23.5563], [68.2896, 23.5983], [68.2716, 23.6246], [68.2541, 23.5679], [68.2091, 23.5771], [68.1721, 23.6225], [68.1975, 23.6487], [68.1999, 23.6329], [68.2617, 23.6504], [68.3391, 23.7413], [68.3496, 23.73], [68.3203, 23.7584], [68.327, 23.7333], [68.2854, 23.7292], [68.2708, 23.698], [68.2625, 23.7363], [68.2688, 23.6875], [68.2458, 23.6712], [68.1896, 23.7292], [68.2154, 23.7584], [68.2071, 23.8342], [68.2458, 23.8538], [68.2608, 23.8354], [68.2579, 23.8825], [68.2907, 23.8929], [68.2794, 23.9171], [68.3348, 23.9162], [68.357, 23.9742], [68.3651, 23.9404], [68.3796, 23.9708], [68.753, 23.9714], [68.7647, 24.2958], [68.808, 24.3135], [68.8308, 24.3115], [68.866, 24.2122], [68.9454, 24.3025], [69.0034, 24.2231], [69.0948, 24.2744], [69.1942, 24.2364], [69.3128, 24.2814], [69.494, 24.2678], [69.5943, 24.2924], [69.7315, 24.171], [70.025, 24.171], [70.0665, 24.199], [70.1099, 24.295], [70.3687, 24.3509], [70.5613, 24.4209], [70.6025, 24.4082], [70.5621, 24.354], [70.5847, 24.2904], [70.5713, 24.2518], [70.714, 24.2157], [70.8054, 24.2208], [70.9067, 24.2594], [70.8739, 24.2949], [70.9469, 24.3485], [70.986, 24.3653], [71.042, 24.3511], [71.1196, 24.4025], [71.1031, 24.4357], [70.9985, 24.4444], [70.9863, 24.5956], [71.0089, 24.6354], [71.0962, 24.6886], [70.9377, 24.9386], [70.8885, 25.1481], [70.7517, 25.2777], [70.7368, 25.3324], [70.6648, 25.3969], [70.6786, 25.5255], [70.6601, 25.702], [70.6086, 25.7149], [70.5302, 25.6834], [70.387, 25.6737], [70.2686, 25.7136], [70.0998, 25.9382], [70.0834, 26.0834], [70.1412, 26.156], [70.1752, 26.2515], [70.1743, 26.5513], [70.0563, 26.6005], [69.8232, 26.589], [69.5103, 26.7435], [69.4844, 26.8049], [69.5134, 27.0099], [69.5868, 27.1833], [70.0259, 27.5629], [70.1326, 27.806], [70.3722, 28.0118], [70.5057, 28.037], [70.5895, 28.0105], [70.6774, 27.9218], [70.6843, 27.8282], [70.7398, 27.7419], [70.872, 27.7055], [71.2056, 27.8353], [71.3831, 27.8725], [71.6665, 27.8778], [71.8983, 27.9612], [71.9273, 28.1217], [72.0043, 28.2185], [72.2066, 28.3948], [72.2993, 28.6697], [72.3903, 28.7697], [72.7331, 28.948], [72.9458, 29.0278], [73.0044, 29.153], [73.0844, 29.2362], [73.2823, 29.5721], [73.397, 29.9459], [73.8066, 30.068], [73.9727, 30.1983], [73.9565, 30.276], [73.8798, 30.3598], [73.9738, 30.444], [73.9265, 30.4389], [73.9347, 30.4902], [73.9642, 30.4564], [73.982, 30.504], [74.02, 30.5141], [74.0119, 30.5336], [74.0723, 30.5229], [74.096, 30.6114], [74.1934, 30.6651], [74.2324, 30.7244], [74.2865, 30.7356], [74.2612, 30.7747], [74.3019, 30.7794], [74.3204, 30.8466], [74.3822, 30.8604], [74.3659, 30.893], [74.4228, 30.9078], [74.4165, 30.9403], [74.5465, 30.9925], [74.5683, 31.0548], [74.5969, 31.0376], [74.6961, 31.074], [74.6892, 31.128], [74.6024, 31.1333], [74.6106, 31.0991], [74.5713, 31.0814], [74.5485, 31.122], [74.5104, 31.132], [74.5421, 31.3037], [74.5264, 31.3124], [74.5517, 31.3644], [74.6013, 31.4199], [74.6547, 31.4259], [74.6367, 31.4847], [74.5754, 31.5009], [74.6129, 31.5273], [74.6159, 31.569], [74.5555, 31.6079], [74.5351, 31.6776], [74.4866, 31.7151], [74.5594, 31.7579], [74.5579, 31.8048], [74.6074, 31.8901], [74.6362, 31.8842], [74.6667, 31.9226], [74.7191, 31.9238], [74.7554, 31.9558], [74.819, 31.9587], [74.8794, 32.0538], [74.9336, 32.0656], [75.0124, 32.0357], [75.1229, 32.0815], [75.1743, 32.0677], [75.2034, 32.1202], [75.2403, 32.091], [75.3223, 32.1793], [75.3162, 32.208], [75.3723, 32.2258], [75.3815, 32.2688], [75.3208, 32.2972], [75.3375, 32.3206], [75.322, 32.3437], [75.2569, 32.3894], [75.1928, 32.401], [75.1918, 32.4261], [75.1329, 32.4088], [75.1017, 32.4775], [75.0265, 32.4976], [75.0155, 32.4644], [74.9516, 32.4465], [74.8771, 32.4939], [74.7272, 32.4758], [74.6814, 32.4928], [74.6902, 32.5343], [74.6619, 32.5458], [74.6731, 32.568], [74.6516, 32.563], [74.6591, 32.5967], [74.6385, 32.6146], [74.6951, 32.6606], [74.6662, 32.6756], [74.6545, 32.7291], [74.7053, 32.842], [74.6329, 32.8089], [74.6586, 32.7875], [74.632, 32.776], [74.6376, 32.7515], [74.5143, 32.7442], [74.4452, 32.8041], [74.3718, 32.7696], [74.3413, 32.8097], [74.001, 32.9544], [73.9258, 33.0341], [73.8162, 33.0103], [73.6341, 33.0934], [73.6251, 33.1319], [73.6703, 33.1522], [73.6703, 33.211], [73.6274, 33.2415], [73.6083, 33.3349], [73.576, 33.3774], [73.6302, 33.4563], [73.6121, 33.5083], [73.6336, 33.5264], [73.6285, 33.5677], [73.572, 33.6304], [73.6008, 33.6988], [73.5669, 33.7977], [73.5946, 33.8916], [73.5245, 34.0125], [73.5014, 34.018], [73.499, 34.2076], [73.4736, 34.2562], [73.4883, 34.2793], [73.3984, 34.3783], [73.4278, 34.4167], [73.4533, 34.5693], [73.564, 34.5897], [73.6567, 34.5625], [73.6997, 34.6479], [73.6647, 34.6699], [73.728, 34.7643], [73.7777, 34.7949], [73.8308, 34.7915], [73.8382, 34.8141], [73.9275, 34.8113], [73.9778, 34.8661], [74.0451, 34.8904], [74.0389, 34.9141], [74.0716, 34.9379], [74.0609, 34.9887], [74.1112, 35.0176], [74.0767, 35.0475], [74.0875, 35.0826], [74.1319, 35.1193], [74.1123, 35.1532], [74.0357, 35.1496], [74.003, 35.1846], [73.9579, 35.165], [73.9258, 35.2102], [73.8711, 35.2048], [73.8093, 35.2429], [73.7499, 35.2209], [73.6929, 35.3492], [73.7273, 35.4193], [73.7945, 35.449], [73.7856, 35.5245], [73.4053, 35.5293], [73.3952, 35.5869], [73.356, 35.6095], [73.331, 35.6629], [73.2401, 35.6576], [73.126, 35.7212], [73.1118, 35.7592], [73.2003, 35.7871], [73.1783, 35.8602], [73.1291, 35.8459], [73.0922, 35.8756], [73.0263, 35.8423], [72.9989, 35.8626], [72.9038, 35.8418], [72.8908, 35.8774], [72.8195, 35.8881], [72.7857, 35.8481], [72.6834, 35.8204], [72.5685, 35.8518], [72.5099, 35.9024], [72.5681, 36.0123], [72.5212, 36.0789], [72.5491, 36.2327], [72.5937, 36.2696], [72.6864, 36.2755], [72.8483, 36.3764], [72.8715, 36.4524], [72.9674, 36.4769], [72.9704, 36.509], [73.0411, 36.5476], [73.075, 36.6094], [73.0494, 36.673], [73.0619, 36.6974], [73.1522, 36.73], [73.2395, 36.717], [73.4089, 36.7586], [73.476, 36.7336], [73.5687, 36.736], [73.6037, 36.7098], [73.7755, 36.7283], [73.8343, 36.7098], [73.8681, 36.755], [73.839, 36.8013], [73.697, 36.8548], [73.6506, 36.9158], [73.8424, 36.9072], [73.9749, 36.8405], [74.0407, 36.8343], [74.1297, 36.8574], [74.151, 36.9179], [74.2773, 36.9153], [74.424, 37.0069], [74.5219, 37.006], [74.5628, 36.9713], [74.5734, 37.0389], [74.7042, 37.0976], [74.7348, 37.0375], [74.8407, 37.0656], [74.8428, 37.0237], [74.9021, 36.9406], [74.9392, 36.948], [74.9371, 36.9925], [75.1457, 37.0343], [75.1687, 36.9993], [75.241, 36.9718], [75.4063, 36.9655], [75.419, 36.9448], [75.3978, 36.9093], [75.4333, 36.8765], [75.4264, 36.7843], [75.4601, 36.7298], [75.5037, 36.7488], [75.5344, 36.734], [75.5397, 36.7801], [75.7356, 36.7531], [75.9411, 36.6064], [75.9358, 36.5756], [76.0279, 36.4396], [76.1493, 36.4245], [76.239, 36.3199], [76.3186, 36.3301], [76.3889, 36.3098], [76.4286, 36.2395], [76.4693, 36.22], [76.6689, 36.1904], [76.7188, 36.1599], [76.7789, 36.0398], [76.7789, 35.9103], [76.8391, 35.8595], [77.0086, 35.8197], [77.0896, 35.7402], [77.209, 35.7097], [77.3486, 35.7198], [77.4214, 35.6402], [77.4689, 35.6519], [77.5087, 35.5802], [77.5187, 35.4857]]], [[[93.8458, 7.2446], [93.8937, 7.2041], [93.8971, 7.0883], [93.9629, 7.0033], [93.9287, 6.9958], [93.9571, 6.9591], [93.9095, 6.905], [93.9146, 6.81], [93.895, 6.7946], [93.8683, 6.8154], [93.8441, 6.7529], [93.822, 6.7625], [93.8025, 6.8837], [93.7741, 6.9196], [93.7629, 6.9083], [93.7296, 6.995], [93.6696, 7.0174], [93.6604, 7.1283], [93.6875, 7.187], [93.735, 7.1887], [93.7625, 7.2153], [93.8104, 7.2058], [93.8121, 7.2366], [93.8442, 7.2446], [93.8458, 7.2446]]], [[[93.7362, 7.4233], [93.7763, 7.3783], [93.7537, 7.3266], [93.6741, 7.252], [93.647, 7.265], [93.6479, 7.3724], [93.7233, 7.3887], [93.7208, 7.4445], [93.7354, 7.4241], [93.7362, 7.4233]]], [[[93.3775, 8.0212], [93.4037, 8.0058], [93.4004, 7.9682], [93.4546, 7.9325], [93.4574, 7.8695], [93.4266, 7.9003], [93.3766, 7.8779], [93.3399, 7.8887], [93.3499, 7.9421], [93.3187, 7.9241], [93.3195, 7.9941], [93.3742, 8.0212], [93.3775, 8.0212]]], [[[93.5675, 8.0262], [93.5929, 7.9883], [93.5867, 7.927], [93.5188, 7.9833], [93.5437, 8.0233], [93.5624, 7.9962], [93.5658, 8.0271], [93.5675, 8.0262]]], [[[93.5979, 8.1125], [93.6137, 8.0458], [93.5896, 8.055], [93.5729, 8.1225], [93.5963, 8.1158], [93.5979, 8.1125]]], [[[93.5375, 8.2362], [93.5579, 8.2208], [93.5496, 8.1808], [93.5087, 8.1508], [93.557, 8.0892], [93.5612, 8.0375], [93.5208, 8.0313], [93.5124, 7.9979], [93.4962, 8.0425], [93.5487, 8.0658], [93.5267, 8.0837], [93.4971, 8.0516], [93.5013, 8.0908], [93.4629, 8.1675], [93.53, 8.2371], [93.5375, 8.2362]]], [[[93.2546, 8.2342], [93.2442, 8.2179], [93.2237, 8.2458], [93.2433, 8.2638], [93.2538, 8.2416], [93.2546, 8.2342]]], [[[73.0608, 8.2779], [73.0183, 8.2771], [73.0542, 8.2796], [73.0783, 8.3237], [73.0617, 8.2779], [73.0608, 8.2779]]], [[[93.1309, 8.3546], [93.1488, 8.345], [93.1337, 8.2733], [93.2104, 8.2175], [93.1933, 8.1946], [93.1217, 8.2279], [93.0921, 8.2725], [93.0996, 8.3342], [93.1283, 8.3546], [93.1309, 8.3546]]], [[[93.0791, 8.4288], [93.0667, 8.4612], [93.0821, 8.4316], [93.0791, 8.4288]]], [[[93.6279, 8.5291], [93.6454, 8.4617], [93.6283, 8.4171], [93.6262, 8.5325], [93.6279, 8.5291]]], [[[92.7804, 9.2467], [92.8187, 9.2142], [92.8258, 9.1321], [92.7924, 9.1163], [92.722, 9.1384], [92.7204, 9.2108], [92.7641, 9.2146], [92.7812, 9.2475], [92.7804, 9.2467]]], [[[73.6624, 10.1279], [73.6596, 10.1541], [73.6637, 10.1291], [73.6624, 10.1279]]], [[[72.61, 10.5587], [72.5829, 10.5416], [72.6092, 10.5779], [72.6141, 10.5596], [72.61, 10.5587]]], [[[72.2, 10.8813], [72.1791, 10.8413], [72.1762, 10.8708], [72.1983, 10.8812], [72.2, 10.8813]]], [[[92.5491, 10.8804], [92.5887, 10.8533], [92.5954, 10.7899], [92.5662, 10.7958], [92.6212, 10.7641], [92.6212, 10.6766], [92.5587, 10.6175], [92.5487, 10.5874], [92.5779, 10.5683], [92.5404, 10.5142], [92.4958, 10.5079], [92.4375, 10.5445], [92.3849, 10.5287], [92.4162, 10.6291], [92.3863, 10.6575], [92.3829, 10.7817], [92.5033, 10.8895], [92.5125, 10.8671], [92.5249, 10.8971], [92.5504, 10.8817], [92.5491, 10.8804]]], [[[72.7208, 11.1129], [72.7283, 11.1354], [72.7225, 11.1138], [72.7208, 11.1129]]], [[[92.7008, 11.2354], [92.7012, 11.2766], [92.7154, 11.285], [92.7054, 11.2441], [92.7008, 11.2354]]], [[[73.0024, 11.4971], [73.0084, 11.4679], [73.0008, 11.4971], [73.0024, 11.4971]]], [[[92.6608, 11.4937], [92.6945, 11.4216], [92.6546, 11.405], [92.6987, 11.3867], [92.6996, 11.365], [92.6108, 11.3395], [92.5896, 11.3583], [92.5963, 11.3958], [92.6296, 11.4], [92.6212, 11.4799], [92.6408, 11.5112], [92.6546, 11.4966], [92.6608, 11.4937]]], [[[92.5663, 11.5341], [92.575, 11.5112], [92.5671, 11.535], [92.5663, 11.5341]]], [[[92.6212, 11.5533], [92.6183, 11.5262], [92.6191, 11.5546], [92.6212, 11.5533]]], [[[92.6038, 11.5358], [92.5963, 11.5725], [92.6046, 11.5367], [92.6038, 11.5358]]], [[[92.6187, 11.5833], [92.6079, 11.5633], [92.6167, 11.5854], [92.6187, 11.5833]]], [[[92.2329, 11.5875], [92.2813, 11.575], [92.2741, 11.5138], [92.2254, 11.5267], [92.2113, 11.5825], [92.2341, 11.5879], [92.2329, 11.5875]]], [[[92.5475, 11.6046], [92.5796, 11.5833], [92.5391, 11.5496], [92.545, 11.6046], [92.5475, 11.6046]]], [[[72.1941, 11.5912], [72.1842, 11.6054], [72.195, 11.5921], [72.1941, 11.5912]]], [[[93.0242, 11.8479], [93.0809, 11.8371], [93.0683, 11.8096], [93.0204, 11.8291], [93.0216, 11.8479], [93.0242, 11.8479]]], [[[92.7658, 11.9671], [92.7641, 11.9429], [92.7462, 11.955], [92.7642, 11.9671], [92.7658, 11.9671]]], [[[92.9754, 12.0332], [93.0154, 12.02], [93.0612, 11.9008], [93.0312, 11.8875], [93.0037, 11.9342], [93.0329, 11.9308], [93.0104, 11.975], [92.99, 11.9429], [92.9304, 11.9925], [92.9754, 12.0374], [92.9754, 12.0332]]], [[[93.0058, 12.1029], [92.9975, 12.0453], [92.9679, 12.0941], [93.0033, 12.1038], [93.0058, 12.1029]]], [[[92.9754, 12.1474], [93.0012, 12.1192], [92.9679, 12.1182], [92.9771, 12.1499], [92.9754, 12.1474]]], [[[93.0321, 12.1475], [93.0579, 12.0516], [93.0137, 12.08], [93.0079, 12.1317], [93.0346, 12.1508], [93.0321, 12.1475]]], [[[93.0792, 12.2087], [93.0996, 12.1766], [93.0962, 12.0967], [93.08, 12.0821], [93.0446, 12.1258], [93.0788, 12.2108], [93.0792, 12.2087]]], [[[92.9416, 12.192], [92.9321, 12.2174], [92.9496, 12.2183], [92.9446, 12.1958], [92.9416, 12.192]]], [[[92.7096, 12.2274], [92.7071, 12.1633], [92.7637, 12.1724], [92.7471, 12.0549], [92.7121, 12.0491], [92.7979, 12.0507], [92.7708, 12.0204], [92.7429, 12.0299], [92.7729, 12.0], [92.7333, 11.977], [92.7229, 11.9233], [92.7394, 11.8928], [92.7525, 11.9304], [92.79, 11.9354], [92.8004, 11.8966], [92.7629, 11.6975], [92.7483, 11.6829], [92.7091, 11.7013], [92.7179, 11.6658], [92.672, 11.6475], [92.7033, 11.6163], [92.7054, 11.6466], [92.7387, 11.6533], [92.7292, 11.6771], [92.7629, 11.6584], [92.7413, 11.6325], [92.7621, 11.6083], [92.7204, 11.4741], [92.7096, 11.4992], [92.6562, 11.515], [92.6562, 11.5666], [92.6263, 11.5575], [92.6146, 11.6141], [92.6496, 11.63], [92.6129, 11.6341], [92.6066, 11.7121], [92.5721, 11.6916], [92.5571, 11.8433], [92.5333, 11.8221], [92.5212, 11.8433], [92.5716, 11.9404], [92.5938, 11.8841], [92.6112, 11.8933], [92.615, 11.8471], [92.6287, 12.1016], [92.6687, 12.2091], [92.6813, 12.1741], [92.6787, 12.2074], [92.7087, 12.2341], [92.7096, 12.2274]]], [[[92.7404, 12.2058], [92.7516, 12.2345], [92.7754, 12.1933], [92.7312, 12.1899], [92.7408, 12.2403], [92.7404, 12.2083], [92.7404, 12.2058]]], [[[92.9154, 12.2432], [92.9217, 12.2145], [92.8983, 12.2295], [92.8866, 12.2061], [92.8779, 12.2308], [92.9154, 12.2449], [92.9154, 12.2432]]], [[[93.1137, 12.2375], [93.1108, 12.2037], [93.0687, 12.2316], [93.0875, 12.2587], [93.1137, 12.2425], [93.1137, 12.2375]]], [[[93.8608, 12.2812], [93.8762, 12.2633], [93.8559, 12.247], [93.8592, 12.2812], [93.8608, 12.2812]]], [[[92.7175, 12.2954], [92.7362, 12.2925], [92.7233, 12.227], [92.715, 12.2954], [92.7175, 12.2954]]], [[[92.9504, 12.2774], [92.935, 12.2295], [92.9271, 12.2657], [92.9079, 12.2666], [92.9142, 12.2887], [92.9396, 12.2774], [92.9425, 12.3079], [92.9496, 12.2791], [92.9504, 12.2774]]], [[[92.8266, 12.3029], [92.8946, 12.2833], [92.8979, 12.2549], [92.8696, 12.2391], [92.8887, 12.1932], [92.8508, 12.1945], [92.8646, 12.1641], [92.8233, 12.1595], [92.8196, 12.1049], [92.7921, 12.0991], [92.8096, 12.0891], [92.7733, 12.0587], [92.7462, 12.0941], [92.7862, 12.2374], [92.7495, 12.2466], [92.7862, 12.2766], [92.7808, 12.3078], [92.8233, 12.3045], [92.8266, 12.3029]]], [[[92.8758, 12.4053], [92.9037, 12.3941], [92.8925, 12.3703], [92.8725, 12.377], [92.8529, 12.3999], [92.8708, 12.4079], [92.8758, 12.4053]]], [[[92.9704, 12.4124], [92.9383, 12.3545], [92.9395, 12.4132], [92.9649, 12.4328], [92.9713, 12.4141], [92.9704, 12.4124]]], [[[92.7249, 12.8254], [92.7316, 12.7154], [92.7045, 12.7916], [92.7208, 12.8245], [92.7249, 12.8254]]], [[[92.7399, 12.8612], [92.7216, 12.8287], [92.7366, 12.8629], [92.7399, 12.8612]]], [[[92.9095, 12.9108], [92.9303, 12.9091], [92.9145, 12.8824], [92.937, 12.8841], [92.9571, 12.8357], [92.9637, 12.7908], [92.9412, 12.7733], [92.9912, 12.7083], [92.9487, 12.6158], [92.9679, 12.6124], [92.9895, 12.5349], [92.9787, 12.4883], [92.9324, 12.4637], [92.9704, 12.4649], [92.9296, 12.4375], [92.9225, 12.402], [92.8979, 12.4408], [92.9096, 12.4574], [92.8917, 12.442], [92.8504, 12.4699], [92.9071, 12.4191], [92.8883, 12.4103], [92.8112, 12.4358], [92.8099, 12.457], [92.8662, 12.3616], [92.8996, 12.3457], [92.8758, 12.3329], [92.8892, 12.3145], [92.7808, 12.3154], [92.7616, 12.2945], [92.7079, 12.3233], [92.7153, 12.5975], [92.6937, 12.6124], [92.7191, 12.6137], [92.7241, 12.6428], [92.7324, 12.6229], [92.7591, 12.667], [92.7837, 12.6657], [92.7916, 12.6329], [92.7962, 12.6833], [92.7941, 12.7029], [92.7799, 12.6712], [92.7429, 12.6691], [92.7303, 12.8225], [92.7491, 12.8095], [92.7608, 12.842], [92.7883, 12.8245], [92.8033, 12.8879], [92.8691, 12.8753], [92.9087, 12.9124], [92.9095, 12.9108]]], [[[92.7107, 12.9862], [92.7345, 12.8891], [92.6775, 12.7787], [92.6579, 12.8575], [92.6779, 12.8816], [92.677, 12.9633], [92.7074, 12.9871], [92.7107, 12.9862]]], [[[93.0171, 12.9875], [92.9883, 12.9253], [92.9604, 12.9366], [92.982, 12.9432], [92.9628, 12.9757], [93.0179, 12.9891], [93.0171, 12.9875]]], [[[92.935, 13.0246], [92.9508, 12.9937], [92.9287, 12.9991], [92.9325, 13.0246], [92.935, 13.0246]]], [[[92.7192, 13.0979], [92.7346, 13.09], [92.7112, 13.0658], [92.6987, 13.0958], [92.7158, 13.1021], [92.7192, 13.0979]]], [[[94.295, 13.4454], [94.3004, 13.4174], [94.2771, 13.42], [94.2924, 13.4479], [94.295, 13.4454]]], [[[93.0487, 13.5458], [93.0421, 13.4308], [93.0154, 13.4275], [93.0704, 13.4125], [93.0596, 13.3758], [93.0963, 13.3275], [93.0716, 13.3054], [93.0683, 13.3246], [93.0479, 13.3183], [93.0517, 13.3504], [92.9966, 13.3246], [92.9741, 13.3596], [92.9629, 13.3425], [93.0062, 13.3092], [92.9971, 13.2883], [93.0184, 13.3162], [93.0208, 13.2729], [93.0729, 13.2633], [93.0437, 13.1858], [93.0413, 13.0575], [93.015, 13.0237], [92.9766, 13.0313], [92.9699, 13.007], [92.9437, 13.035], [92.9496, 13.0958], [92.94, 13.0504], [92.8967, 13.0887], [92.9204, 13.0566], [92.8871, 13.0408], [92.9212, 13.0416], [92.9144, 12.9966], [92.947, 12.9666], [92.9149, 12.9446], [92.9061, 12.9908], [92.8878, 12.9374], [92.8649, 12.9379], [92.8766, 12.8812], [92.8116, 12.8961], [92.7995, 12.9741], [92.8371, 13.0092], [92.7946, 13.0133], [92.7987, 13.0883], [92.8224, 13.0721], [92.817, 13.1225], [92.857, 13.135], [92.8171, 13.1517], [92.8412, 13.1675], [92.8354, 13.2333], [92.8621, 13.2358], [92.8296, 13.2666], [92.8496, 13.2975], [92.8296, 13.3083], [92.8479, 13.3725], [92.8599, 13.3579], [92.8863, 13.3858], [92.8521, 13.4], [92.8863, 13.4033], [92.8787, 13.4667], [92.9379, 13.4941], [92.9187, 13.5042], [92.9413, 13.5208], [92.9292, 13.5321], [92.9975, 13.5279], [92.9987, 13.5658], [93.0225, 13.5413], [93.0367, 13.5746], [93.0479, 13.5466], [93.0487, 13.5458]]], [[[93.0292, 13.6696], [93.04, 13.6221], [92.9904, 13.65], [93.0258, 13.6696], [93.0292, 13.6696]]], [[[88.1929, 21.5737], [88.1764, 21.5728], [88.18, 21.599], [88.1923, 21.574], [88.1929, 21.5737]]], [[[88.53, 21.5602], [88.4817, 21.5591], [88.4917, 21.596], [88.5321, 21.5814], [88.5309, 21.5611], [88.53, 21.5602]]], [[[88.8453, 21.5995], [88.8995, 21.5657], [88.8402, 21.5646], [88.844, 21.6002], [88.8453, 21.5995]]], [[[88.5529, 21.6312], [88.5899, 21.6017], [88.5447, 21.5685], [88.5112, 21.6052], [88.5241, 21.6525], [88.5487, 21.6313], [88.5529, 21.6312]]], [[[88.3083, 21.7063], [88.3445, 21.6917], [88.3533, 21.6513], [88.3141, 21.6063], [88.3033, 21.7072], [88.3083, 21.7063]]], [[[88.7266, 21.6657], [88.7688, 21.6546], [88.7957, 21.5927], [88.7164, 21.5838], [88.7208, 21.6391], [88.6896, 21.6841], [88.6971, 21.7106], [88.7174, 21.6729], [88.7266, 21.6657]]], [[[88.2108, 21.6704], [88.2329, 21.6416], [88.21, 21.5954], [88.1804, 21.6892], [88.205, 21.7237], [88.2083, 21.6704], [88.2108, 21.6704]]], [[[88.5589, 21.7299], [88.6027, 21.6842], [88.5867, 21.6605], [88.6027, 21.6231], [88.5378, 21.643], [88.5178, 21.7116], [88.5579, 21.7307], [88.5589, 21.7299]]], [[[88.5449, 21.8118], [88.5711, 21.7897], [88.5713, 21.735], [88.5261, 21.7191], [88.5042, 21.7685], [88.5415, 21.8118], [88.5449, 21.8118]]], [[[88.5983, 21.8473], [88.6141, 21.7995], [88.5909, 21.7978], [88.5767, 21.8207], [88.5941, 21.849], [88.5983, 21.8473]]], [[[88.1687, 21.7858], [88.1554, 21.6817], [88.1279, 21.68], [88.1571, 21.6741], [88.1487, 21.6342], [88.11, 21.6229], [88.0421, 21.65], [88.1246, 21.865], [88.1392, 21.8754], [88.1737, 21.8166], [88.1679, 21.7867], [88.1687, 21.7858]]], [[[88.6463, 21.9172], [88.6674, 21.9127], [88.6283, 21.7882], [88.5951, 21.8584], [88.6447, 21.9188], [88.6463, 21.9172]]], [[[88.6637, 22.0186], [88.7151, 22.0005], [88.6793, 21.9443], [88.6318, 21.9543], [88.6354, 21.9974], [88.6628, 22.0197], [88.6637, 22.0186]]], [[[88.0702, 21.9217], [88.0503, 21.9322], [88.0802, 22.0093], [88.1445, 22.0266], [88.0783, 21.9284], [88.0702, 21.9217]]], [[[68.1679, 23.7341], [68.1684, 23.7706], [68.1954, 23.7809], [68.1679, 23.7359], [68.1679, 23.7341]]]]}}]}